{
  "type": "FeatureCollection",
  "features": [
    {
      "type": "Feature",
      "properties": {
        "norad_id": 64694,
        "name": "GOSAT-GW (IBUKI GW)",
        "group": "resource",
        "lat": 70.66467025372543,
        "lon": 138.53468216003856,
        "alt_km": 661.1231952666631,
        "timestamp": "2025-12-25T11:37:44.079680+00:00",
        "meta_object_name": "GOSAT-GW (IBUKI GW)",
        "meta_object_id": "2025-141A",
        "meta_epoch": "2025-12-25T04:35:42.196704",
        "meta_mean_motion": 14.67559544,
        "meta_eccentricity": 0.0001435,
        "meta_inclination": 98.0439,
        "meta_ra_of_asc_node": 294.4795,
        "meta_arg_of_pericenter": 82.294,
        "meta_mean_anomaly": 277.8427,
        "meta_ephemeris_type": 0,
        "meta_classification_type": "U",
        "meta_norad_cat_id": 64694,
        "meta_element_set_no": 999,
        "meta_rev_at_epoch": 2632,
        "meta_bstar": 0.00019285,
        "meta_mean_motion_dot": 1.046e-05,
        "meta_mean_motion_ddot": 0,
        "tle_line1": "1 64694U 25141A   25359.19146061  .00001046  00000+0  19285-3 0  9992",
        "tle_line2": "2 64694  98.0439 294.4795 0001435  82.2940 277.8427 14.67559544 26322"
      },
      "geometry": {
        "type": "Point",
        "coordinates": [
          138.53468216003856,
          70.66467025372543
        ]
      }
    },
    {
      "type": "Feature",
      "properties": {
        "norad_id": 64876,
        "name": "IONOSFERA-M 3",
        "group": "resource",
        "lat": 22.124415324468032,
        "lon": 144.50991966949044,
        "alt_km": 820.7761126364112,
        "timestamp": "2025-12-25T11:37:44.079690+00:00",
        "meta_object_name": "IONOSFERA-M 3",
        "meta_object_id": "2025-155A",
        "meta_epoch": "2025-12-25T04:07:58.641600",
        "meta_mean_motion": 14.21443963,
        "meta_eccentricity": 0.0001843,
        "meta_inclination": 98.58,
        "meta_ra_of_asc_node": 320.6874,
        "meta_arg_of_pericenter": 39.9173,
        "meta_mean_anomaly": 320.214,
        "meta_ephemeris_type": 0,
        "meta_classification_type": "U",
        "meta_norad_cat_id": 64876,
        "meta_element_set_no": 999,
        "meta_rev_at_epoch": 2168,
        "meta_bstar": 5.5498e-05,
        "meta_mean_motion_dot": 7.9e-07,
        "meta_mean_motion_ddot": 0,
        "tle_line1": "1 64876U 25155A   25359.17220650  .00000079  00000+0  55498-4 0  9996",
        "tle_line2": "2 64876  98.5800 320.6874 0001843  39.9173 320.2140 14.21443963 21687"
      },
      "geometry": {
        "type": "Point",
        "coordinates": [
          144.50991966949044,
          22.124415324468032
        ]
      }
    },
    {
      "type": "Feature",
      "properties": {
        "norad_id": 64877,
        "name": "IONOSFERA-M 4",
        "group": "resource",
        "lat": -21.671898067048538,
        "lon": -35.65010785673043,
        "alt_km": 825.4616663295674,
        "timestamp": "2025-12-25T11:37:44.079700+00:00",
        "meta_object_name": "IONOSFERA-M 4",
        "meta_object_id": "2025-155B",
        "meta_epoch": "2025-12-25T04:58:27.533568",
        "meta_mean_motion": 14.21445115,
        "meta_eccentricity": 0.0001277,
        "meta_inclination": 98.5801,
        "meta_ra_of_asc_node": 320.6409,
        "meta_arg_of_pericenter": 51.5824,
        "meta_mean_anomaly": 308.5469,
        "meta_ephemeris_type": 0,
        "meta_classification_type": "U",
        "meta_norad_cat_id": 64877,
        "meta_element_set_no": 999,
        "meta_rev_at_epoch": 2168,
        "meta_bstar": 5.9133e-05,
        "meta_mean_motion_dot": 8.7e-07,
        "meta_mean_motion_ddot": 0,
        "tle_line1": "1 64877U 25155B   25359.20726312  .00000087  00000+0  59133-4 0  9996",
        "tle_line2": "2 64877  98.5801 320.6409 0001277  51.5824 308.5469 14.21445115 21681"
      },
      "geometry": {
        "type": "Point",
        "coordinates": [
          -35.65010785673043,
          -21.671898067048538
        ]
      }
    },
    {
      "type": "Feature",
      "properties": {
        "norad_id": 64899,
        "name": "MICROCARB",
        "group": "resource",
        "lat": -67.03359643833288,
        "lon": 94.0087734471747,
        "alt_km": 674.0477492630143,
        "timestamp": "2025-12-25T11:37:44.079710+00:00",
        "meta_object_name": "MICROCARB",
        "meta_object_id": "2025-156A",
        "meta_epoch": "2025-12-24T22:53:21.567840",
        "meta_mean_motion": 14.72076253,
        "meta_eccentricity": 0.0017635,
        "meta_inclination": 98.001,
        "meta_ra_of_asc_node": 74.1026,
        "meta_arg_of_pericenter": 108.1689,
        "meta_mean_anomaly": 252.144,
        "meta_ephemeris_type": 0,
        "meta_classification_type": "U",
        "meta_norad_cat_id": 64899,
        "meta_element_set_no": 999,
        "meta_rev_at_epoch": 2233,
        "meta_bstar": 0.00012397,
        "meta_mean_motion_dot": 7.31e-06,
        "meta_mean_motion_ddot": 0,
        "tle_line1": "1 64899U 25156A   25358.95372185  .00000731  00000+0  12397-3 0  9993",
        "tle_line2": "2 64899  98.0010  74.1026 0017635 108.1689 252.1440 14.72076253 22336"
      },
      "geometry": {
        "type": "Point",
        "coordinates": [
          94.0087734471747,
          -67.03359643833288
        ]
      }
    },
    {
      "type": "Feature",
      "properties": {
        "norad_id": 64900,
        "name": "CO3D 3",
        "group": "resource",
        "lat": 17.559078119485545,
        "lon": 73.30105837643201,
        "alt_km": 505.18932410014986,
        "timestamp": "2025-12-25T11:37:44.079720+00:00",
        "meta_object_name": "CO3D 3",
        "meta_object_id": "2025-156B",
        "meta_epoch": "2025-12-25T05:13:56.010432",
        "meta_mean_motion": 15.20194084,
        "meta_eccentricity": 0.0001384,
        "meta_inclination": 97.4335,
        "meta_ra_of_asc_node": 75.4062,
        "meta_arg_of_pericenter": 69.9929,
        "meta_mean_anomaly": 290.1455,
        "meta_ephemeris_type": 0,
        "meta_classification_type": "U",
        "meta_norad_cat_id": 64900,
        "meta_element_set_no": 999,
        "meta_rev_at_epoch": 2310,
        "meta_bstar": 0.00030304,
        "meta_mean_motion_dot": 6.497e-05,
        "meta_mean_motion_ddot": 0,
        "tle_line1": "1 64900U 25156B   25359.21800938  .00006497  00000+0  30304-3 0  9991",
        "tle_line2": "2 64900  97.4335  75.4062 0001384  69.9929 290.1455 15.20194084 23102"
      },
      "geometry": {
        "type": "Point",
        "coordinates": [
          73.30105837643201,
          17.559078119485545
        ]
      }
    },
    {
      "type": "Feature",
      "properties": {
        "norad_id": 64901,
        "name": "CO3D 4",
        "group": "resource",
        "lat": 16.815968096523935,
        "lon": 73.40739727683513,
        "alt_km": 506.5982722294293,
        "timestamp": "2025-12-25T11:37:44.079730+00:00",
        "meta_object_name": "CO3D 4",
        "meta_object_id": "2025-156C",
        "meta_epoch": "2025-12-25T03:39:21.157344",
        "meta_mean_motion": 15.20222514,
        "meta_eccentricity": 0.0001491,
        "meta_inclination": 97.4335,
        "meta_ra_of_asc_node": 75.3414,
        "meta_arg_of_pericenter": 157.6472,
        "meta_mean_anomaly": 202.4828,
        "meta_ephemeris_type": 0,
        "meta_classification_type": "U",
        "meta_norad_cat_id": 64901,
        "meta_element_set_no": 999,
        "meta_rev_at_epoch": 2309,
        "meta_bstar": 0.00020287,
        "meta_mean_motion_dot": 4.329e-05,
        "meta_mean_motion_ddot": 0,
        "tle_line1": "1 64901U 25156C   25359.15232821  .00004329  00000+0  20287-3 0  9996",
        "tle_line2": "2 64901  97.4335  75.3414 0001491 157.6472 202.4828 15.20222514 23098"
      },
      "geometry": {
        "type": "Point",
        "coordinates": [
          73.40739727683513,
          16.815968096523935
        ]
      }
    },
    {
      "type": "Feature",
      "properties": {
        "norad_id": 64902,
        "name": "CO3D 2",
        "group": "resource",
        "lat": -19.319843146020244,
        "lon": -107.05581151008812,
        "alt_km": 510.9036122814996,
        "timestamp": "2025-12-25T11:37:44.079740+00:00",
        "meta_object_name": "CO3D 2",
        "meta_object_id": "2025-156D",
        "meta_epoch": "2025-12-25T04:26:08.219904",
        "meta_mean_motion": 15.20191518,
        "meta_eccentricity": 8.18e-05,
        "meta_inclination": 97.4337,
        "meta_ra_of_asc_node": 75.2724,
        "meta_arg_of_pericenter": 59.5839,
        "meta_mean_anomaly": 300.5477,
        "meta_ephemeris_type": 0,
        "meta_classification_type": "U",
        "meta_norad_cat_id": 64902,
        "meta_element_set_no": 999,
        "meta_rev_at_epoch": 2309,
        "meta_bstar": 0.00028713,
        "meta_mean_motion_dot": 6.151e-05,
        "meta_mean_motion_ddot": 0,
        "tle_line1": "1 64902U 25156D   25359.18481736  .00006151  00000+0  28713-3 0  9998",
        "tle_line2": "2 64902  97.4337  75.2724 0000818  59.5839 300.5477 15.20191518 23092"
      },
      "geometry": {
        "type": "Point",
        "coordinates": [
          -107.05581151008812,
          -19.319843146020244
        ]
      }
    }
  ]
}